COSMOS 2419 (714)       
1 28915U 05050A   16169.62117645 -.00000047  00000-0  00000+0 0  9991
2 28915  65.3222  78.1494 0017040 351.1291 119.7307  2.13110672 81565
COSMOS 2425 (716)       
1 29670U 06062A   16169.44731063 -.00000053  00000-0  10000-3 0  9992
2 29670  65.6337 317.1457 0020824 350.9216  44.1985  2.13104884 73761
COSMOS 2426 (717)       
1 29671U 06062B   16170.09127411 -.00000051  00000-0  10000-3 0  9990
2 29671  65.6507 317.2057 0017817 158.6887 231.3689  2.13102899 73780
COSMOS 2424 (715)       
1 29672U 06062C   16170.12973446 -.00000051  00000-0  10000-3 0  9992
2 29672  65.6353 317.1329 0017315 157.7248  78.1413  2.13102238 73773
COSMOS 2433 (720)       
1 32275U 07052A   16170.21625003 -.00000041  00000-0  10000-3 0  9997
2 32275  65.3379  77.9002 0003162 293.4432 163.6161  2.13104733 67290
COSMOS 2432 (719)       
1 32276U 07052B   16170.06494297 -.00000043  00000-0  10000-3 0  9992
2 32276  65.3499  77.9710 0013269 338.3404 316.4531  2.13104236 67283
COSMOS 2434 (721)       
1 32393U 07065A   16169.72693730 -.00000053  00000-0  00000-0 0  9997
2 32393  65.2522 316.4585 0005935 105.4793 228.2088  2.13102802 65984
COSMOS 2436 (723)       
1 32395U 07065C   16169.62345855 -.00000053  00000-0  10000-3 0  9994
2 32395  65.2650 316.5046 0016715   0.7374 345.5846  2.13102855 65917
COSMOS 2443 (725)       
1 33379U 08046B   16170.13389664 -.00000042  00000-0  10000-3 0  9999
2 33379  65.2668  77.3194 0016178 186.6689 112.2971  2.13101365 60155
COSMOS 2456 (730)       
1 36111U 09070A   16170.44280167  .00000101  00000-0  00000+0 0  9996
2 36111  64.1818 196.0222 0006122 297.5139  34.9127  2.13102884 50663
COSMOS 2457 (733)       
1 36112U 09070B   16170.42811698  .00000101  00000-0  00000+0 0  9994
2 36112  64.1641 195.9497 0006790 186.9857 264.4214  2.13101549 50674
COSMOS 2458 (734)       
1 36113U 09070C   16169.66402909  .00000102  00000-0  10000-3 0  9996
2 36113  64.1696 195.9811 0002319 294.5187 338.2449  2.13102051 50657
COSMOS 2459 (731)       
1 36400U 10007A   16169.72536929 -.00000046  00000-0  10000-3 0  9992
2 36400  65.2457  77.0676 0029744 352.8547 312.9615  2.13102373 49009
COSMOS 2461 (735)       
1 36401U 10007B   16169.61461566 -.00000047  00000-0  10000-3 0  9996
2 36401  65.2387  77.0529 0006728  57.3737  74.0401  2.13102441 49009
COSMOS 2460 (732)       
1 36402U 10007C   16169.79469448 -.00000046  00000-0  10000-3 0  9992
2 36402  65.2288  77.0236 0001687 351.0763 320.3578  2.13101896 49002
COSMOS 2465 (737)       
1 37138U 10041B   16169.98544122 -.00000053  00000-0  00000+0 0  9994
2 37138  64.8518 316.6214 0035508 167.7332  49.0139  2.13093901 45080
COSMOS 2464 (736)       
1 37139U 10041C   16170.45153183 -.00000051  00000-0  00000+0 0  9990
2 37139  64.8579 316.6024 0022899  17.2702  19.9977  2.13102580 45109
COSMOS 2471 (701K)      
1 37372U 11009A   16169.58789988 -.00000047  00000-0  00000-0 0  9990
2 37372  65.2264  76.9797 0007419 243.0959  42.2865  2.13102756 41275
COSMOS 2474 (742)       
1 37829U 11055A   16170.18646694  .00000102  00000-0  00000+0 0  9992
2 37829  64.5061 196.4439 0010376 253.7497 103.4414  2.13101939 36659
COSMOS 2476 (744)       
1 37867U 11064A   16169.46755466  .00000102  00000-0  00000+0 0  9991
2 37867  64.4857 196.5493 0019276 248.2256 323.2783  2.13102021 35994
COSMOS 2477 (745)       
1 37868U 11064B   16169.79384575  .00000102  00000-0  00000+0 0  9997
2 37868  64.4949 196.5787 0017314 249.6678  31.4577  2.13101877 35950
COSMOS 2475 (743)       
1 37869U 11064C   16170.42342669  .00000102  00000-0  00000+0 0  9998
2 37869  64.5019 196.5453 0022633 273.8428  86.3979  2.13102004 35983
COSMOS 2485 (747)       
1 39155U 13019A   16169.73126716  .00000103  00000-0  00000-0 0  9997
2 39155  64.6556 196.4907 0019711 243.7421 215.2056  2.13102212 24477
COSMOS 2492 (754)       
1 39620U 14012A   16170.13659036 -.00000037  00000-0  13006+2 0  9998
2 39620  65.1182  76.9999 0016580 335.5985 107.5253  2.13103659 17430
COSMOS 2500 (755)       
1 40001U 14032A   16170.13374647 -.00000043  00000-0  00000+0 0  9992
2 40001  65.0583  77.0244 0004901 217.7458  86.9415  2.13103022 15649
COSMOS 2501 (702K)      
1 40315U 14075A   16170.21073128 -.00000052  00000-0  00000+0 0  9996
2 40315  64.6237 318.0666 0016486 231.5240 293.4254  2.13101557 12057
COSMOS 2514 (751)       
1 41330U 16008A   16169.32706388 -.00000050  00000-0  00000-0 0  9992
2 41330  64.8585  77.2876 0008151 223.4675   1.3931  2.13103567  2793
COSMOS 2516 (753)       
1 41554U 16032A   16167.76302377  .00000000  00000-0  10000-3 0  9991
2 41554  64.8050 317.8268 0009991 217.7043 142.2244  2.13101022   361
